[{"OBJECT_NAME":"D-SAT","OBJECT_ID":"2017-036AF","EPOCH":"2026-03-14T22:25:54.655968","MEAN_MOTION":15.15622534,"ECCENTRICITY":0.00855378,"INCLINATION":97.5484,"RA_OF_ASC_NODE":53.2381,"ARG_OF_PERICENTER":127.38,"MEAN_ANOMALY":233.5261,"EPHEMERIS_TYPE":0,"CLASSIFICATION_TYPE":"U","NORAD_CAT_ID":42794,"ELEMENT_SET_NO":999,"REV_AT_EPOCH":47657,"BSTAR":0.00047204708,"MEAN_MOTION_DOT":9.777e-5,"MEAN_MOTION_DDOT":0},{"OBJECT_NAME":"IRIDIUM 113","OBJECT_ID":"2017-039A","EPOCH":"2026-03-15T06:17:32.396928","MEAN_MOTION":14.34214703,"ECCENTRICITY":0.00022382,"INCLINATION":86.4035,"RA_OF_ASC_NODE":1.425,"ARG_OF_PERICENTER":77.7108,"MEAN_ANOMALY":282.4338,"EPHEMERIS_TYPE":0,"CLASSIFICATION_TYPE":"U","NORAD_CAT_ID":42803,"ELEMENT_SET_NO":999,"REV_AT_EPOCH":45772,"BSTAR":0.00038056763,"MEAN_MOTION_DOT":1.086e-5,"MEAN_MOTION_DDOT":0},{"OBJECT_NAME":"NORSAT 2","OBJECT_ID":"2017-042D","EPOCH":"2026-03-15T06:36:23.155200","MEAN_MOTION":15.19866342,"ECCENTRICITY":0.00101356,"INCLINATION":97.3976,"RA_OF_ASC_NODE":249.3671,"ARG_OF_PERICENTER":26.6104,"MEAN_ANOMALY":333.565,"EPHEMERIS_TYPE":0,"CLASSIFICATION_TYPE":"U","NORAD_CAT_ID":42828,"ELEMENT_SET_NO":999,"REV_AT_EPOCH":47346,"BSTAR":0.00064723305,"MEAN_MOTION_DOT":0.00013852,"MEAN_MOTION_DDOT":0},{"OBJECT_NAME":"TECHNOSAT","OBJECT_ID":"2017-042E","EPOCH":"2026-03-15T00:22:35.159808","MEAN_MOTION":15.04330295,"ECCENTRICITY":0.00189824,"INCLINATION":97.4142,"RA_OF_ASC_NODE":235.3576,"ARG_OF_PERICENTER":58.2057,"MEAN_ANOMALY":302.1015,"EPHEMERIS_TYPE":0,"CLASSIFICATION_TYPE":"U","NORAD_CAT_ID":42829,"ELEMENT_SET_NO":999,"REV_AT_EPOCH":47254,"BSTAR":0.00029582099,"MEAN_MOTION_DOT":4.08e-5,"MEAN_MOTION_DDOT":0},{"OBJECT_NAME":"FLYING LAPTOP","OBJECT_ID":"2017-042G","EPOCH":"2026-03-15T07:30:31.109184","MEAN_MOTION":15.0055978,"ECCENTRICITY":0.00197127,"INCLINATION":97.4282,"RA_OF_ASC_NODE":233.7368,"ARG_OF_PERICENTER":77.923,"MEAN_ANOMALY":282.4202,"EPHEMERIS_TYPE":0,"CLASSIFICATION_TYPE":"U","NORAD_CAT_ID":42831,"ELEMENT_SET_NO":999,"REV_AT_EPOCH":47237,"BSTAR":0.00028713443,"MEAN_MOTION_DOT":3.581e-5,"MEAN_MOTION_DDOT":0},{"OBJECT_NAME":"WNISAT 1R","OBJECT_ID":"2017-042L","EPOCH":"2026-03-14T22:16:02.459136","MEAN_MOTION":15.01200464,"ECCENTRICITY":0.00134639,"INCLINATION":97.4532,"RA_OF_ASC_NODE":233.5694,"ARG_OF_PERICENTER":115.4037,"MEAN_ANOMALY":244.8583,"EPHEMERIS_TYPE":0,"CLASSIFICATION_TYPE":"U","NORAD_CAT_ID":42835,"ELEMENT_SET_NO":999,"REV_AT_EPOCH":47236,"BSTAR":0.00036429969,"MEAN_MOTION_DOT":4.627e-5,"MEAN_MOTION_DDOT":0},{"OBJECT_NAME":"LEMUR-2-GREENBERG","OBJECT_ID":"2017-042N","EPOCH":"2026-03-15T06:57:34.429248","MEAN_MOTION":15.28224076,"ECCENTRICITY":0.00087439,"INCLINATION":97.3777,"RA_OF_ASC_NODE":255.5721,"ARG_OF_PERICENTER":343.3604,"MEAN_ANOMALY":16.7348,"EPHEMERIS_TYPE":0,"CLASSIFICATION_TYPE":"U","NORAD_CAT_ID":42837,"ELEMENT_SET_NO":999,"REV_AT_EPOCH":47403,"BSTAR":0.00073072218,"MEAN_MOTION_DOT":0.00020077,"MEAN_MOTION_DDOT":0},{"OBJECT_NAME":"LEMUR-2-FURIAUS","OBJECT_ID":"2017-042R","EPOCH":"2026-03-15T00:13:13.514016","MEAN_MOTION":15.26554397,"ECCENTRICITY":0.00073913,"INCLINATION":97.3746,"RA_OF_ASC_NODE":253.4828,"ARG_OF_PERICENTER":38.5422,"MEAN_ANOMALY":321.6343,"EPHEMERIS_TYPE":0,"CLASSIFICATION_TYPE":"U","NORAD_CAT_ID":42840,"ELEMENT_SET_NO":999,"REV_AT_EPOCH":47382,"BSTAR":0.0010779158,"MEAN_MOTION_DOT":0.00028209,"MEAN_MOTION_DDOT":0},{"OBJECT_NAME":"CORVUS BC2","OBJECT_ID":"2017-042X","EPOCH":"2026-03-15T04:15:02.548512","MEAN_MOTION":15.05654793,"ECCENTRICITY":0.00148467,"INCLINATION":97.3957,"RA_OF_ASC_NODE":239.2757,"ARG_OF_PERICENTER":76.4103,"MEAN_ANOMALY":283.8777,"EPHEMERIS_TYPE":0,"CLASSIFICATION_TYPE":"U","NORAD_CAT_ID":42846,"ELEMENT_SET_NO":999,"REV_AT_EPOCH":47291,"BSTAR":0.00025753961,"MEAN_MOTION_DOT":3.669e-5,"MEAN_MOTION_DDOT":0},{"OBJECT_NAME":"CORVUS BC1","OBJECT_ID":"2017-042Y","EPOCH":"2026-03-15T04:23:21.397056","MEAN_MOTION":15.05864042,"ECCENTRICITY":0.00133651,"INCLINATION":97.399,"RA_OF_ASC_NODE":240.0309,"ARG_OF_PERICENTER":55.7007,"MEAN_ANOMALY":304.5484,"EPHEMERIS_TYPE":0,"CLASSIFICATION_TYPE":"U","NORAD_CAT_ID":42847,"ELEMENT_SET_NO":999,"REV_AT_EPOCH":47294,"BSTAR":0.00026786348,"MEAN_MOTION_DOT":3.838e-5,"MEAN_MOTION_DDOT":0},{"OBJECT_NAME":"VRSS-2","OBJECT_ID":"2017-060A","EPOCH":"2026-03-15T06:45:09.300096","MEAN_MOTION":14.81033277,"ECCENTRICITY":0.00183253,"INCLINATION":97.665,"RA_OF_ASC_NODE":116.1921,"ARG_OF_PERICENTER":50.524,"MEAN_ANOMALY":309.7591,"EPHEMERIS_TYPE":0,"CLASSIFICATION_TYPE":"U","NORAD_CAT_ID":42954,"ELEMENT_SET_NO":999,"REV_AT_EPOCH":45455,"BSTAR":0.00022850737,"MEAN_MOTION_DOT":1.726e-5,"MEAN_MOTION_DDOT":0},{"OBJECT_NAME":"MOHAMMED VI-A","OBJECT_ID":"2017-070A","EPOCH":"2026-03-15T07:41:10.720608","MEAN_MOTION":14.77055113,"ECCENTRICITY":0.00015595,"INCLINATION":97.9425,"RA_OF_ASC_NODE":147.9767,"ARG_OF_PERICENTER":77.6835,"MEAN_ANOMALY":282.455,"EPHEMERIS_TYPE":0,"CLASSIFICATION_TYPE":"U","NORAD_CAT_ID":43005,"ELEMENT_SET_NO":999,"REV_AT_EPOCH":45012,"BSTAR":0.00013918375,"MEAN_MOTION_DOT":9.31e-6,"MEAN_MOTION_DDOT":0},{"OBJECT_NAME":"FENGYUN 3D","OBJECT_ID":"2017-072A","EPOCH":"2026-03-15T06:34:53.375232","MEAN_MOTION":14.1971719,"ECCENTRICITY":0.00013326,"INCLINATION":99.0034,"RA_OF_ASC_NODE":47.0455,"ARG_OF_PERICENTER":1.1242,"MEAN_ANOMALY":358.9936,"EPHEMERIS_TYPE":0,"CLASSIFICATION_TYPE":"U","NORAD_CAT_ID":43010,"ELEMENT_SET_NO":999,"REV_AT_EPOCH":43166,"BSTAR":0.00015381192,"MEAN_MOTION_DOT":2.79e-6,"MEAN_MOTION_DDOT":0},{"OBJECT_NAME":"CZ-4C R/B","OBJECT_ID":"2017-072C","EPOCH":"2026-03-15T06:36:12.877056","MEAN_MOTION":14.58701633,"ECCENTRICITY":0.01237005,"INCLINATION":98.5701,"RA_OF_ASC_NODE":179.2523,"ARG_OF_PERICENTER":81.3319,"MEAN_ANOMALY":280.1869,"EPHEMERIS_TYPE":0,"CLASSIFICATION_TYPE":"U","NORAD_CAT_ID":43012,"ELEMENT_SET_NO":999,"REV_AT_EPOCH":44294,"BSTAR":0.00010824113,"MEAN_MOTION_DOT":5.06e-6,"MEAN_MOTION_DDOT":0},{"OBJECT_NAME":"NOAA 20 (JPSS-1)","OBJECT_ID":"2017-073A","EPOCH":"2026-03-15T06:08:16.893312","MEAN_MOTION":14.19537656,"ECCENTRICITY":0.00014544,"INCLINATION":98.7698,"RA_OF_ASC_NODE":14.5877,"ARG_OF_PERICENTER":130.1629,"MEAN_ANOMALY":229.9675,"EPHEMERIS_TYPE":0,"CLASSIFICATION_TYPE":"U","NORAD_CAT_ID":43013,"ELEMENT_SET_NO":999,"REV_AT_EPOCH":43114,"BSTAR":5.4340581e-5,"MEAN_MOTION_DOT":7.0e-7,"MEAN_MOTION_DDOT":0},{"OBJECT_NAME":"MAKERSAT 0","OBJECT_ID":"2017-073D","EPOCH":"2026-03-15T04:52:52.043232","MEAN_MOTION":15.28078906,"ECCENTRICITY":0.01147232,"INCLINATION":97.4785,"RA_OF_ASC_NODE":316.2018,"ARG_OF_PERICENTER":246.0562,"MEAN_ANOMALY":112.8629,"EPHEMERIS_TYPE":0,"CLASSIFICATION_TYPE":"U","NORAD_CAT_ID":43016,"ELEMENT_SET_NO":999,"REV_AT_EPOCH":45209,"BSTAR":0.00070291898,"MEAN_MOTION_DOT":0.00023403,"MEAN_MOTION_DDOT":0}]
