D-SAT                   
1 42794U 17036AF  26073.93466037  .00009777  00000+0  47205-3 0  9999
2 42794  97.5484  53.2381 0085537 127.3800 233.5261 15.15622534476571
IRIDIUM 113             
1 42803U 17039A   26074.26218052  .00001086  00000+0  38057-3 0  9992
2 42803  86.4035   1.4250 0002238  77.7108 282.4338 14.34214703457726
NORSAT 2                
1 42828U 17042D   26074.27526800  .00013852  00000+0  64723-3 0  9990
2 42828  97.3976 249.3671 0010135  26.6104 333.5650 15.19866342473462
TECHNOSAT               
1 42829U 17042E   26074.01568472  .00004080  00000+0  29582-3 0  9991
2 42829  97.4142 235.3576 0018982  58.2057 302.1015 15.04330295472546
FLYING LAPTOP           
1 42831U 17042G   26074.31286006  .00003581  00000+0  28713-3 0  9997
2 42831  97.4282 233.7368 0019712  77.9230 282.4202 15.00559780472375
WNISAT 1R               
1 42835U 17042L   26073.92780624  .00004627  00000+0  36430-3 0  9999
2 42835  97.4532 233.5694 0013463 115.4037 244.8583 15.01200464472363
LEMUR-2-GREENBERG       
1 42837U 17042N   26074.28998182  .00020077  00000+0  73072-3 0  9991
2 42837  97.3777 255.5721 0008743 343.3604  16.7348 15.28224076474032
LEMUR-2-FURIAUS         
1 42840U 17042R   26074.00918419  .00028209  00000+0  10779-2 0  9999
2 42840  97.3746 253.4828 0007391  38.5422 321.6343 15.26554397473825
CORVUS BC2              
1 42846U 17042X   26074.17711283  .00003669  00000+0  25754-3 0  9996
2 42846  97.3957 239.2757 0014846  76.4103 283.8777 15.05654793472915
CORVUS BC1              
1 42847U 17042Y   26074.18288654  .00003838  00000+0  26786-3 0  9993
2 42847  97.3990 240.0309 0013365  55.7007 304.5484 15.05864042472943
VRSS-2                  
1 42954U 17060A   26074.28135764  .00001726  00000+0  22851-3 0  9999
2 42954  97.6650 116.1921 0018325  50.5240 309.7591 14.81033277454558
MOHAMMED VI-A           
1 43005U 17070A   26074.32026297  .00000931  00000+0  13918-3 0  9994
2 43005  97.9425 147.9767 0001559  77.6835 282.4550 14.77055113450129
FENGYUN 3D              
1 43010U 17072A   26074.27422888  .00000279  00000+0  15381-3 0  9993
2 43010  99.0034  47.0455 0001332   1.1242 358.9936 14.19717190431662
CZ-4C R/B               
1 43012U 17072C   26074.27514904  .00000506  00000+0  10824-3 0  9996
2 43012  98.5701 179.2523 0123700  81.3319 280.1869 14.58701633442944
NOAA 20 (JPSS-1)        
1 43013U 17073A   26074.25575108  .00000070  00000+0  54341-4 0  9998
2 43013  98.7698  14.5877 0001454 130.1629 229.9675 14.19537656431148
MAKERSAT 0              
1 43016U 17073D   26074.20338013  .00023403  00000+0  70292-3 0  9995
2 43016  97.4785 316.2018 0114723 246.0562 112.8629 15.28078906452095
